[{"OBJECT_NAME":"STARLINK-34040","OBJECT_ID":"2025-093D","EPOCH":"2026-03-09T10:21:55.365120","MEAN_MOTION":15.27581833,"ECCENTRICITY":0.00011682,"INCLINATION":43.0021,"RA_OF_ASC_NODE":79.2819,"ARG_OF_PERICENTER":264.7212,"MEAN_ANOMALY":95.3506,"EPHEMERIS_TYPE":0,"CLASSIFICATION_TYPE":"U","NORAD_CAT_ID":63839,"ELEMENT_SET_NO":999,"REV_AT_EPOCH":4793,"BSTAR":0.0010300341,"MEAN_MOTION_DOT":0.00028192,"MEAN_MOTION_DDOT":0},{"OBJECT_NAME":"IRIDIUM 45","OBJECT_ID":"1997-082A","EPOCH":"2026-03-09T19:43:04.689120","MEAN_MOTION":15.36676082,"ECCENTRICITY":0.00899413,"INCLINATION":86.3479,"RA_OF_ASC_NODE":277.5722,"ARG_OF_PERICENTER":47.6509,"MEAN_ANOMALY":313.2314,"EPHEMERIS_TYPE":0,"CLASSIFICATION_TYPE":"U","NORAD_CAT_ID":25104,"ELEMENT_SET_NO":999,"REV_AT_EPOCH":49262,"BSTAR":0.00064625537,"MEAN_MOTION_DOT":0.00026618,"MEAN_MOTION_DDOT":0}]
